ORBCOMM FM33            
1 25983U 99065D   25082.61355848  .00004477  00000+0  14604-2 0  9991
2 25983  45.0283  45.7300 0009924 344.2415  15.8124 14.39703942323738
ORBCOMM FM36            
1 25984U 99065E   25082.53520831  .00003985  00000+0  13569-2 0  9991
2 25984  45.0376 136.7176 0005367 244.1170 115.9125 14.37791624322090
ORBCOMM FM35            
1 25985U 99065F   25082.31543945  .00003597  00000+0  12541-2 0  9997
2 25985  45.0379 142.1225 0004802 299.0390  60.9977 14.36808261322433
ORBCOMM FM34            
1 25986U 99065G   25082.83965176  .00003250  00000+0  11365-2 0  9998
2 25986  45.0374 140.1376 0005997 268.3138  91.7023 14.36855164322662
ORBCOMM FM38            
1 33060U 08031A   25082.06302471  .00008539  00000+0  11219-2 0  9994
2 33060  48.4412   5.5495 0005243  25.5234 334.5939 14.80780630901980
ORBCOMM FM41            
1 33061U 08031B   25082.54698535  .00007539  00000+0  10029-2 0  9994
2 33061  48.4445  10.7349 0004530  11.5284 158.5903 14.80401293901543
ORBCOMM FM29            
1 33062U 08031C   25082.53669213  .00007870  00000+0  10438-2 0  9997
2 33062  48.4396  18.6897 0006315  11.2950 159.7792 14.80468269901842
ORBCOMM FM39            
1 33063U 08031D   25082.58817486  .00006679  00000+0  91973-3 0  9990
2 33063  48.4400  41.7948 0007490 345.0595  15.0097 14.79081686901126
