<?xml version="1.0" encoding="UTF-8"?>
<ndm xmlns:xsi="http://www.w3.org/2001/XMLSchema-instance" xsi:noNamespaceSchemaLocation="https://sanaregistry.org/r/ndmxml_unqualified/ndmxml-2.0.0-master-2.0.xsd">
<omm id="CCSDS_OMM_VERS" version="2.0">
<header><CREATION_DATE/><ORIGINATOR/></header><body><segment><metadata><OBJECT_NAME>ORBCOMM FM33</OBJECT_NAME><OBJECT_ID>1999-065D</OBJECT_ID><CENTER_NAME>EARTH</CENTER_NAME><REF_FRAME>TEME</REF_FRAME><TIME_SYSTEM>UTC</TIME_SYSTEM><MEAN_ELEMENT_THEORY>SGP4</MEAN_ELEMENT_THEORY></metadata><data><meanElements><EPOCH>2025-03-23T14:43:31.452672</EPOCH><MEAN_MOTION>14.39703942</MEAN_MOTION><ECCENTRICITY>.0009924</ECCENTRICITY><INCLINATION>45.0283</INCLINATION><RA_OF_ASC_NODE>45.7300</RA_OF_ASC_NODE><ARG_OF_PERICENTER>344.2415</ARG_OF_PERICENTER><MEAN_ANOMALY>15.8124</MEAN_ANOMALY></meanElements><tleParameters><EPHEMERIS_TYPE>0</EPHEMERIS_TYPE><CLASSIFICATION_TYPE>U</CLASSIFICATION_TYPE><NORAD_CAT_ID>25983</NORAD_CAT_ID><ELEMENT_SET_NO>999</ELEMENT_SET_NO><REV_AT_EPOCH>32373</REV_AT_EPOCH><BSTAR>.14604E-2</BSTAR><MEAN_MOTION_DOT>.4477E-4</MEAN_MOTION_DOT><MEAN_MOTION_DDOT>0</MEAN_MOTION_DDOT></tleParameters></data></segment></body></omm>
<omm id="CCSDS_OMM_VERS" version="2.0">
<header><CREATION_DATE/><ORIGINATOR/></header><body><segment><metadata><OBJECT_NAME>ORBCOMM FM36</OBJECT_NAME><OBJECT_ID>1999-065E</OBJECT_ID><CENTER_NAME>EARTH</CENTER_NAME><REF_FRAME>TEME</REF_FRAME><TIME_SYSTEM>UTC</TIME_SYSTEM><MEAN_ELEMENT_THEORY>SGP4</MEAN_ELEMENT_THEORY></metadata><data><meanElements><EPOCH>2025-03-23T12:50:41.997984</EPOCH><MEAN_MOTION>14.37791624</MEAN_MOTION><ECCENTRICITY>.0005367</ECCENTRICITY><INCLINATION>45.0376</INCLINATION><RA_OF_ASC_NODE>136.7176</RA_OF_ASC_NODE><ARG_OF_PERICENTER>244.1170</ARG_OF_PERICENTER><MEAN_ANOMALY>115.9125</MEAN_ANOMALY></meanElements><tleParameters><EPHEMERIS_TYPE>0</EPHEMERIS_TYPE><CLASSIFICATION_TYPE>U</CLASSIFICATION_TYPE><NORAD_CAT_ID>25984</NORAD_CAT_ID><ELEMENT_SET_NO>999</ELEMENT_SET_NO><REV_AT_EPOCH>32209</REV_AT_EPOCH><BSTAR>.13569E-2</BSTAR><MEAN_MOTION_DOT>.3985E-4</MEAN_MOTION_DOT><MEAN_MOTION_DDOT>0</MEAN_MOTION_DDOT></tleParameters></data></segment></body></omm>
<omm id="CCSDS_OMM_VERS" version="2.0">
<header><CREATION_DATE/><ORIGINATOR/></header><body><segment><metadata><OBJECT_NAME>ORBCOMM FM35</OBJECT_NAME><OBJECT_ID>1999-065F</OBJECT_ID><CENTER_NAME>EARTH</CENTER_NAME><REF_FRAME>TEME</REF_FRAME><TIME_SYSTEM>UTC</TIME_SYSTEM><MEAN_ELEMENT_THEORY>SGP4</MEAN_ELEMENT_THEORY></metadata><data><meanElements><EPOCH>2025-03-23T07:34:13.968480</EPOCH><MEAN_MOTION>14.36808261</MEAN_MOTION><ECCENTRICITY>.0004802</ECCENTRICITY><INCLINATION>45.0379</INCLINATION><RA_OF_ASC_NODE>142.1225</RA_OF_ASC_NODE><ARG_OF_PERICENTER>299.0390</ARG_OF_PERICENTER><MEAN_ANOMALY>60.9977</MEAN_ANOMALY></meanElements><tleParameters><EPHEMERIS_TYPE>0</EPHEMERIS_TYPE><CLASSIFICATION_TYPE>U</CLASSIFICATION_TYPE><NORAD_CAT_ID>25985</NORAD_CAT_ID><ELEMENT_SET_NO>999</ELEMENT_SET_NO><REV_AT_EPOCH>32243</REV_AT_EPOCH><BSTAR>.12541E-2</BSTAR><MEAN_MOTION_DOT>.3597E-4</MEAN_MOTION_DOT><MEAN_MOTION_DDOT>0</MEAN_MOTION_DDOT></tleParameters></data></segment></body></omm>
<omm id="CCSDS_OMM_VERS" version="2.0">
<header><CREATION_DATE/><ORIGINATOR/></header><body><segment><metadata><OBJECT_NAME>ORBCOMM FM34</OBJECT_NAME><OBJECT_ID>1999-065G</OBJECT_ID><CENTER_NAME>EARTH</CENTER_NAME><REF_FRAME>TEME</REF_FRAME><TIME_SYSTEM>UTC</TIME_SYSTEM><MEAN_ELEMENT_THEORY>SGP4</MEAN_ELEMENT_THEORY></metadata><data><meanElements><EPOCH>2025-03-23T20:09:05.912064</EPOCH><MEAN_MOTION>14.36855164</MEAN_MOTION><ECCENTRICITY>.0005997</ECCENTRICITY><INCLINATION>45.0374</INCLINATION><RA_OF_ASC_NODE>140.1376</RA_OF_ASC_NODE><ARG_OF_PERICENTER>268.3138</ARG_OF_PERICENTER><MEAN_ANOMALY>91.7023</MEAN_ANOMALY></meanElements><tleParameters><EPHEMERIS_TYPE>0</EPHEMERIS_TYPE><CLASSIFICATION_TYPE>U</CLASSIFICATION_TYPE><NORAD_CAT_ID>25986</NORAD_CAT_ID><ELEMENT_SET_NO>999</ELEMENT_SET_NO><REV_AT_EPOCH>32266</REV_AT_EPOCH><BSTAR>.11365E-2</BSTAR><MEAN_MOTION_DOT>.325E-4</MEAN_MOTION_DOT><MEAN_MOTION_DDOT>0</MEAN_MOTION_DDOT></tleParameters></data></segment></body></omm>
<omm id="CCSDS_OMM_VERS" version="2.0">
<header><CREATION_DATE/><ORIGINATOR/></header><body><segment><metadata><OBJECT_NAME>ORBCOMM FM38</OBJECT_NAME><OBJECT_ID>2008-031A</OBJECT_ID><CENTER_NAME>EARTH</CENTER_NAME><REF_FRAME>TEME</REF_FRAME><TIME_SYSTEM>UTC</TIME_SYSTEM><MEAN_ELEMENT_THEORY>SGP4</MEAN_ELEMENT_THEORY></metadata><data><meanElements><EPOCH>2025-03-23T01:30:45.334944</EPOCH><MEAN_MOTION>14.80780630</MEAN_MOTION><ECCENTRICITY>.0005243</ECCENTRICITY><INCLINATION>48.4412</INCLINATION><RA_OF_ASC_NODE>5.5495</RA_OF_ASC_NODE><ARG_OF_PERICENTER>25.5234</ARG_OF_PERICENTER><MEAN_ANOMALY>334.5939</MEAN_ANOMALY></meanElements><tleParameters><EPHEMERIS_TYPE>0</EPHEMERIS_TYPE><CLASSIFICATION_TYPE>U</CLASSIFICATION_TYPE><NORAD_CAT_ID>33060</NORAD_CAT_ID><ELEMENT_SET_NO>999</ELEMENT_SET_NO><REV_AT_EPOCH>90198</REV_AT_EPOCH><BSTAR>.11219E-2</BSTAR><MEAN_MOTION_DOT>.8539E-4</MEAN_MOTION_DOT><MEAN_MOTION_DDOT>0</MEAN_MOTION_DDOT></tleParameters></data></segment></body></omm>
<omm id="CCSDS_OMM_VERS" version="2.0">
<header><CREATION_DATE/><ORIGINATOR/></header><body><segment><metadata><OBJECT_NAME>ORBCOMM FM41</OBJECT_NAME><OBJECT_ID>2008-031B</OBJECT_ID><CENTER_NAME>EARTH</CENTER_NAME><REF_FRAME>TEME</REF_FRAME><TIME_SYSTEM>UTC</TIME_SYSTEM><MEAN_ELEMENT_THEORY>SGP4</MEAN_ELEMENT_THEORY></metadata><data><meanElements><EPOCH>2025-03-23T13:07:39.534240</EPOCH><MEAN_MOTION>14.80401293</MEAN_MOTION><ECCENTRICITY>.000453</ECCENTRICITY><INCLINATION>48.4445</INCLINATION><RA_OF_ASC_NODE>10.7349</RA_OF_ASC_NODE><ARG_OF_PERICENTER>11.5284</ARG_OF_PERICENTER><MEAN_ANOMALY>158.5903</MEAN_ANOMALY></meanElements><tleParameters><EPHEMERIS_TYPE>0</EPHEMERIS_TYPE><CLASSIFICATION_TYPE>U</CLASSIFICATION_TYPE><NORAD_CAT_ID>33061</NORAD_CAT_ID><ELEMENT_SET_NO>999</ELEMENT_SET_NO><REV_AT_EPOCH>90154</REV_AT_EPOCH><BSTAR>.10029E-2</BSTAR><MEAN_MOTION_DOT>.7539E-4</MEAN_MOTION_DOT><MEAN_MOTION_DDOT>0</MEAN_MOTION_DDOT></tleParameters></data></segment></body></omm>
<omm id="CCSDS_OMM_VERS" version="2.0">
<header><CREATION_DATE/><ORIGINATOR/></header><body><segment><metadata><OBJECT_NAME>ORBCOMM FM29</OBJECT_NAME><OBJECT_ID>2008-031C</OBJECT_ID><CENTER_NAME>EARTH</CENTER_NAME><REF_FRAME>TEME</REF_FRAME><TIME_SYSTEM>UTC</TIME_SYSTEM><MEAN_ELEMENT_THEORY>SGP4</MEAN_ELEMENT_THEORY></metadata><data><meanElements><EPOCH>2025-03-23T12:52:50.200032</EPOCH><MEAN_MOTION>14.80468269</MEAN_MOTION><ECCENTRICITY>.0006315</ECCENTRICITY><INCLINATION>48.4396</INCLINATION><RA_OF_ASC_NODE>18.6897</RA_OF_ASC_NODE><ARG_OF_PERICENTER>11.2950</ARG_OF_PERICENTER><MEAN_ANOMALY>159.7792</MEAN_ANOMALY></meanElements><tleParameters><EPHEMERIS_TYPE>0</EPHEMERIS_TYPE><CLASSIFICATION_TYPE>U</CLASSIFICATION_TYPE><NORAD_CAT_ID>33062</NORAD_CAT_ID><ELEMENT_SET_NO>999</ELEMENT_SET_NO><REV_AT_EPOCH>90184</REV_AT_EPOCH><BSTAR>.10438E-2</BSTAR><MEAN_MOTION_DOT>.787E-4</MEAN_MOTION_DOT><MEAN_MOTION_DDOT>0</MEAN_MOTION_DDOT></tleParameters></data></segment></body></omm>
<omm id="CCSDS_OMM_VERS" version="2.0">
<header><CREATION_DATE/><ORIGINATOR/></header><body><segment><metadata><OBJECT_NAME>ORBCOMM FM39</OBJECT_NAME><OBJECT_ID>2008-031D</OBJECT_ID><CENTER_NAME>EARTH</CENTER_NAME><REF_FRAME>TEME</REF_FRAME><TIME_SYSTEM>UTC</TIME_SYSTEM><MEAN_ELEMENT_THEORY>SGP4</MEAN_ELEMENT_THEORY></metadata><data><meanElements><EPOCH>2025-03-23T14:06:58.307904</EPOCH><MEAN_MOTION>14.79081686</MEAN_MOTION><ECCENTRICITY>.000749</ECCENTRICITY><INCLINATION>48.4400</INCLINATION><RA_OF_ASC_NODE>41.7948</RA_OF_ASC_NODE><ARG_OF_PERICENTER>345.0595</ARG_OF_PERICENTER><MEAN_ANOMALY>15.0097</MEAN_ANOMALY></meanElements><tleParameters><EPHEMERIS_TYPE>0</EPHEMERIS_TYPE><CLASSIFICATION_TYPE>U</CLASSIFICATION_TYPE><NORAD_CAT_ID>33063</NORAD_CAT_ID><ELEMENT_SET_NO>999</ELEMENT_SET_NO><REV_AT_EPOCH>90112</REV_AT_EPOCH><BSTAR>.91973E-3</BSTAR><MEAN_MOTION_DOT>.6679E-4</MEAN_MOTION_DOT><MEAN_MOTION_DDOT>0</MEAN_MOTION_DDOT></tleParameters></data></segment></body></omm>

</ndm>
